{
  "type": "FeatureCollection",
  "features": [
    {
      "type": "Feature",
      "properties": {
        "norad_id": 30136,
        "name": "FENGYUN 1C DEB",
        "group": "fengyun-1c-debris",
        "lat": -77.77352137001789,
        "lon": 13.70181837478673,
        "alt_km": 1011.1616466208343,
        "timestamp": "2025-12-10T16:57:11.910854+00:00",
        "meta_object_name": "FENGYUN 1C DEB",
        "meta_object_id": "1999-025SR",
        "meta_epoch": "2025-12-10T12:50:26.179008",
        "meta_mean_motion": 13.9532107,
        "meta_eccentricity": 0.0129438,
        "meta_inclination": 98.5568,
        "meta_ra_of_asc_node": 237.5544,
        "meta_arg_of_pericenter": 75.5572,
        "meta_mean_anomaly": 45.5176,
        "meta_ephemeris_type": 0,
        "meta_classification_type": "U",
        "meta_norad_cat_id": 30136,
        "meta_element_set_no": 999,
        "meta_rev_at_epoch": 96060,
        "meta_bstar": 0.00063597,
        "meta_mean_motion_dot": 8.85e-06,
        "meta_mean_motion_ddot": 0,
        "tle_line1": "1 30136U 99025SR  25344.53502522  .00000885  00000+0  63597-3 0  9993",
        "tle_line2": "2 30136  98.5568 237.5544 0129438  75.5572  45.5176 13.95321070960604"
      },
      "geometry": {
        "type": "Point",
        "coordinates": [
          13.70181837478673,
          -77.77352137001789
        ]
      }
    },
    {
      "type": "Feature",
      "properties": {
        "norad_id": 30138,
        "name": "FENGYUN 1C DEB",
        "group": "fengyun-1c-debris",
        "lat": 9.680738803183539,
        "lon": -140.50356140723315,
        "alt_km": 813.6599233954585,
        "timestamp": "2025-12-10T16:57:11.910864+00:00",
        "meta_object_name": "FENGYUN 1C DEB",
        "meta_object_id": "1999-025ST",
        "meta_epoch": "2025-12-10T09:27:45.620064",
        "meta_mean_motion": 14.20015132,
        "meta_eccentricity": 0.0020425,
        "meta_inclination": 98.7591,
        "meta_ra_of_asc_node": 37.6805,
        "meta_arg_of_pericenter": 144.7451,
        "meta_mean_anomaly": 230.6156,
        "meta_ephemeris_type": 0,
        "meta_classification_type": "U",
        "meta_norad_cat_id": 30138,
        "meta_element_set_no": 999,
        "meta_rev_at_epoch": 97368,
        "meta_bstar": 0.0011828,
        "meta_mean_motion_dot": 2.478e-05,
        "meta_mean_motion_ddot": 0,
        "tle_line1": "1 30138U 99025ST  25344.39427801  .00002478  00000+0  11828-2 0  9994",
        "tle_line2": "2 30138  98.7591  37.6805 0020425 144.7451 230.6156 14.20015132973689"
      },
      "geometry": {
        "type": "Point",
        "coordinates": [
          -140.50356140723315,
          9.680738803183539
        ]
      }
    },
    {
      "type": "Feature",
      "properties": {
        "norad_id": 30139,
        "name": "FENGYUN 1C DEB",
        "group": "fengyun-1c-debris",
        "lat": 50.94521940327234,
        "lon": 18.901259874923074,
        "alt_km": 969.5966006584877,
        "timestamp": "2025-12-10T16:57:11.910874+00:00",
        "meta_object_name": "FENGYUN 1C DEB",
        "meta_object_id": "1999-025SU",
        "meta_epoch": "2025-12-08T13:16:40.867392",
        "meta_mean_motion": 14.03631846,
        "meta_eccentricity": 0.0131198,
        "meta_inclination": 98.3646,
        "meta_ra_of_asc_node": 186.472,
        "meta_arg_of_pericenter": 302.3773,
        "meta_mean_anomaly": 112.2394,
        "meta_ephemeris_type": 0,
        "meta_classification_type": "U",
        "meta_norad_cat_id": 30139,
        "meta_element_set_no": 999,
        "meta_rev_at_epoch": 96191,
        "meta_bstar": 0.0019706,
        "meta_mean_motion_dot": 3.301e-05,
        "meta_mean_motion_ddot": 0,
        "tle_line1": "1 30139U 99025SU  25342.55325078  .00003301  00000+0  19706-2 0  9993",
        "tle_line2": "2 30139  98.3646 186.4720 0131198 302.3773 112.2394 14.03631846961914"
      },
      "geometry": {
        "type": "Point",
        "coordinates": [
          18.901259874923074,
          50.94521940327234
        ]
      }
    },
    {
      "type": "Feature",
      "properties": {
        "norad_id": 30140,
        "name": "FENGYUN 1C DEB",
        "group": "fengyun-1c-debris",
        "lat": -20.070266640114347,
        "lon": 50.834659038505535,
        "alt_km": 801.3285872863662,
        "timestamp": "2025-12-10T16:57:11.910884+00:00",
        "meta_object_name": "FENGYUN 1C DEB",
        "meta_object_id": "1999-025SV",
        "meta_epoch": "2025-12-10T03:39:25.924032",
        "meta_mean_motion": 14.20725318,
        "meta_eccentricity": 0.0040542,
        "meta_inclination": 98.8266,
        "meta_ra_of_asc_node": 47.0271,
        "meta_arg_of_pericenter": 317.3056,
        "meta_mean_anomaly": 70.3688,
        "meta_ephemeris_type": 0,
        "meta_classification_type": "U",
        "meta_norad_cat_id": 30140,
        "meta_element_set_no": 999,
        "meta_rev_at_epoch": 97107,
        "meta_bstar": 0.001712254,
        "meta_mean_motion_dot": 3.679e-05,
        "meta_mean_motion_ddot": 0,
        "tle_line1": "1 30140U 99025SV  25344.15238338  .00003679  00000+0  17123-2 0  9994",
        "tle_line2": "2 30140  98.8266  47.0271 0040542 317.3056  70.3688 14.20725318971079"
      },
      "geometry": {
        "type": "Point",
        "coordinates": [
          50.834659038505535,
          -20.070266640114347
        ]
      }
    },
    {
      "type": "Feature",
      "properties": {
        "norad_id": 30141,
        "name": "FENGYUN 1C DEB",
        "group": "fengyun-1c-debris",
        "lat": 9.340406093528415,
        "lon": 87.82616479991462,
        "alt_km": 731.1025941256294,
        "timestamp": "2025-12-10T16:57:11.910894+00:00",
        "meta_object_name": "FENGYUN 1C DEB",
        "meta_object_id": "1999-025SW",
        "meta_epoch": "2025-12-10T01:16:55.949376",
        "meta_mean_motion": 14.5147041,
        "meta_eccentricity": 0.00193307,
        "meta_inclination": 99.0138,
        "meta_ra_of_asc_node": 265.6304,
        "meta_arg_of_pericenter": 43.1274,
        "meta_mean_anomaly": 317.1429,
        "meta_ephemeris_type": 0,
        "meta_classification_type": "U",
        "meta_norad_cat_id": 30141,
        "meta_element_set_no": 999,
        "meta_rev_at_epoch": 98205,
        "meta_bstar": 0.0040438956,
        "meta_mean_motion_dot": 0.00016179,
        "meta_mean_motion_ddot": 0,
        "tle_line1": "1 30141U 99025SW  25344.05342534  .00016179  00000+0  40439-2 0  9993",
        "tle_line2": "2 30141  99.0138 265.6304 0019330  43.1274 317.1429 14.51470410982052"
      },
      "geometry": {
        "type": "Point",
        "coordinates": [
          87.82616479991462,
          9.340406093528415
        ]
      }
    },
    {
      "type": "Feature",
      "properties": {
        "norad_id": 30142,
        "name": "FENGYUN 1C DEB",
        "group": "fengyun-1c-debris",
        "lat": -37.481945266317176,
        "lon": 67.53204538628894,
        "alt_km": 791.6874322838403,
        "timestamp": "2025-12-10T16:57:11.910906+00:00",
        "meta_object_name": "FENGYUN 1C DEB",
        "meta_object_id": "1999-025SX",
        "meta_epoch": "2025-12-10T05:12:45.631584",
        "meta_mean_motion": 14.10456825,
        "meta_eccentricity": 0.0101059,
        "meta_inclination": 99.128,
        "meta_ra_of_asc_node": 59.9536,
        "meta_arg_of_pericenter": 315.3275,
        "meta_mean_anomaly": 43.9785,
        "meta_ephemeris_type": 0,
        "meta_classification_type": "U",
        "meta_norad_cat_id": 30142,
        "meta_element_set_no": 999,
        "meta_rev_at_epoch": 96263,
        "meta_bstar": 0.0023654,
        "meta_mean_motion_dot": 4.368e-05,
        "meta_mean_motion_ddot": 0,
        "tle_line1": "1 30142U 99025SX  25344.21719481  .00004368  00000+0  23654-2 0  9998",
        "tle_line2": "2 30142  99.1280  59.9536 0101059 315.3275  43.9785 14.10456825962638"
      },
      "geometry": {
        "type": "Point",
        "coordinates": [
          67.53204538628894,
          -37.481945266317176
        ]
      }
    },
    {
      "type": "Feature",
      "properties": {
        "norad_id": 30143,
        "name": "FENGYUN 1C DEB",
        "group": "fengyun-1c-debris",
        "lat": -48.6356603295015,
        "lon": 178.1331745981195,
        "alt_km": 818.4955936398437,
        "timestamp": "2025-12-10T16:57:11.910916+00:00",
        "meta_object_name": "FENGYUN 1C DEB",
        "meta_object_id": "1999-025SY",
        "meta_epoch": "2025-12-10T12:20:59.929728",
        "meta_mean_motion": 14.02569909,
        "meta_eccentricity": 0.0103862,
        "meta_inclination": 98.7349,
        "meta_ra_of_asc_node": 167.8936,
        "meta_arg_of_pericenter": 297.0803,
        "meta_mean_anomaly": 125.3701,
        "meta_ephemeris_type": 0,
        "meta_classification_type": "U",
        "meta_norad_cat_id": 30143,
        "meta_element_set_no": 999,
        "meta_rev_at_epoch": 96188,
        "meta_bstar": 0.0017799,
        "meta_mean_motion_dot": 2.833e-05,
        "meta_mean_motion_ddot": 0,
        "tle_line1": "1 30143U 99025SY  25344.51458252  .00002833  00000+0  17799-2 0  9996",
        "tle_line2": "2 30143  98.7349 167.8936 0103862 297.0803 125.3701 14.02569909961888"
      },
      "geometry": {
        "type": "Point",
        "coordinates": [
          178.1331745981195,
          -48.6356603295015
        ]
      }
    }
  ]
}